COMMENT,ORIGINATOR,NORAD_CAT_ID,OBJECT_NAME,OBJECT_TYPE,CLASSIFICATION_TYPE,INTLDES,EPOCH,EPOCH_MICROSECONDS,MEAN_MOTION,ECCENTRICITY,INCLINATION,RA_OF_ASC_NODE,ARG_OF_PERICENTER,MEAN_ANOMALY,EPHEMERIS_TYPE,ELEMENT_SET_NO,REV_AT_EPOCH,BSTAR,MEAN_MOTION_DOT,MEAN_MOTION_DDOT,FILE,TLE_LINE0,TLE_LINE1,TLE_LINE2,OBJECT_ID,OBJECT_NUMBER,SEMIMAJOR_AXIS,PERIOD,APOGEE,PERIGEE,DECAYED
"GENERATED VIA SPACETRACK.ORG API","18 SPCS","55100","SPACEBEE-158","PAYLOAD","U","23001CV","2023-08-30 22:05:14","161056","15.22498759","0.0016197","97.4715","302.4742","103.2543","257.0501","0","999","3646","0.00077057","0.00017874","0","3993511","0 SPACEBEE-158","1 55100U 23001CV  23242.92030279  .00017874  00000-0  77057-3 0  9998","2 55100  97.4715 302.4742 0016197 103.2543 257.0501 15.22498759 36461","2023-001CV","55100","6876.443","94.581","509.446","487.171","0"
"GENERATED VIA SPACETRACK.ORG API","18 SPCS","55100","SPACEBEE-158","PAYLOAD","U","23001CV","2023-08-30 22:05:14","161056","15.22498759","0.0016197","97.4715","302.4742","103.2543","257.0501","0","999","3646","0.00077057","0.00017874","0","3994074","0 SPACEBEE-158","1 55100U 23001CV  23242.92030279  .00017874  00000-0  77057-3 0  9998","2 55100  97.4715 302.4742 0016197 103.2543 257.0501 15.22498759 36461","2023-001CV","55100","6876.443","94.581","509.446","487.171","0"
"GENERATED VIA SPACETRACK.ORG API","18 SPCS","55100","SPACEBEE-158","PAYLOAD","U","23001CV","2023-08-31 23:19:29","284608","15.2253502","0.0016199","97.471","303.5198","100.0624","260.2441","0","999","3662","0.00074244","0.00017236","0","3994251","0 SPACEBEE-158","1 55100U 23001CV  23243.97186672  .00017236  00000-0  74244-3 0  9990","2 55100  97.4710 303.5198 0016199 100.0624 260.2441 15.22535020 36620","2023-001CV","55100","6876.334","94.579","509.338","487.060","0"
"GENERATED VIA SPACETRACK.ORG API","18 SPCS","55100","SPACEBEE-158","PAYLOAD","U","23001CV","2023-08-31 23:19:29","284608","15.2253502","0.0016199","97.471","303.5198","100.0624","260.2441","0","999","3662","0.00074244","0.00017236","0","3994767","0 SPACEBEE-158","1 55100U 23001CV  23243.97186672  .00017236  00000-0  74244-3 0  9990","2 55100  97.4710 303.5198 0016199 100.0624 260.2441 15.22535020 36620","2023-001CV","55100","6876.334","94.579","509.338","487.060","0"
"GENERATED VIA SPACETRACK.ORG API","18 SPCS","55100","SPACEBEE-158","PAYLOAD","U","23001CV","2023-09-02 02:08:20","292000","15.22578864","0.0016187","97.4706","304.6304","96.441","263.867","0","999","3679","0.00081691","0.00019001","0","3995208","0 SPACEBEE-158","1 55100U 23001CV  23245.08912375  .00019001  00000-0  81691-3 0  9997","2 55100  97.4706 304.6304 0016187  96.4410 263.8670 15.22578864 36798","2023-001CV","55100","6876.202","94.576","509.198","486.937","0"
"GENERATED VIA SPACETRACK.ORG API","18 SPCS","55100","SPACEBEE-158","PAYLOAD","U","23001CV","2023-09-02 10:01:31","236096","15.22591051","0.0016173","97.4703","304.9571","95.4379","264.8703","0","999","3684","0.0008148","0.00018958","0","3995624","0 SPACEBEE-158","1 55100U 23001CV  23245.41772264  .00018958  00000-0  81480-3 0  9991","2 55100  97.4703 304.9571 0016173  95.4379 264.8703 15.22591051 36849","2023-001CV","55100","6876.166","94.576","509.151","486.910","0"
"GENERATED VIA SPACETRACK.ORG API","18 SPCS","55100","SPACEBEE-158","PAYLOAD","U","23001CV","2023-09-02 16:20:03","799392","15.2260118","0.0016151","97.4702","305.2185","94.6448","265.6633","0","999","3688","0.00078158","0.00018186","0","3995906","0 SPACEBEE-158","1 55100U 23001CV  23245.68059953  .00018186  00000-0  78158-3 0  9994","2 55100  97.4702 305.2185 0016151  94.6448 265.6633 15.22601180 36887","2023-001CV","55100","6876.135","94.575","509.106","486.894","0"
"GENERATED VIA SPACETRACK.ORG API","18 SPCS","55100","SPACEBEE-158","PAYLOAD","U","23001CV","2023-09-03 03:22:30","326592","15.22626611","0.001612","97.47","305.6758","93.1859","267.1222","0","999","3695","0.000982","0.00022899","0","3996466","0 SPACEBEE-158","1 55100U 23001CV  23246.14062878  .00022899  00000-0  98200-3 0  9992","2 55100  97.4700 305.6758 0016120  93.1859 267.1222 15.22626611 36956","2023-001CV","55100","6876.059","94.573","509.008","486.839","0"
"GENERATED VIA SPACETRACK.ORG API","18 SPCS","55100","SPACEBEE-158","PAYLOAD","U","23001CV","2023-09-03 03:22:30","326592","15.22626611","0.001612","97.47","305.6758","93.1859","267.1222","0","999","3695","0.000982","0.00022899","0","3996586","0 SPACEBEE-158","1 55100U 23001CV  23246.14062878  .00022899  00000-0  98200-3 0  9992","2 55100  97.4700 305.6758 0016120  93.1859 267.1222 15.22626611 36956","2023-001CV","55100","6876.059","94.573","509.008","486.839","0"
"GENERATED VIA SPACETRACK.ORG API","18 SPCS","55100","SPACEBEE-158","PAYLOAD","U","23001CV","2023-09-04 03:01:59","665728","15.22666294","0.0016053","97.4695","306.6555","90.1157","270.1919","0","999","3710","0.00081553","0.00019017","0","3997503","0 SPACEBEE-158","1 55100U 23001CV  23247.12638502  .00019017  00000-0  81553-3 0  9995","2 55100  97.4695 306.6555 0016053  90.1157 270.1919 15.22666294 37104","2023-001CV","55100","6875.939","94.571","508.842","486.766","0"
"GENERATED VIA SPACETRACK.ORG API","18 SPCS","55100","SPACEBEE-158","PAYLOAD","U","23001CV","2023-09-04 03:01:59","665728","15.22666294","0.0016053","97.4695","306.6555","90.1157","270.1919","0","999","3710","0.00081553","0.00019017","0","3997679","0 SPACEBEE-158","1 55100U 23001CV  23247.12638502  .00019017  00000-0  81553-3 0  9995","2 55100  97.4695 306.6555 0016053  90.1157 270.1919 15.22666294 37104","2023-001CV","55100","6875.939","94.571","508.842","486.766","0"
"GENERATED VIA SPACETRACK.ORG API","18 SPCS","55100","SPACEBEE-158","PAYLOAD","U","23001CV","2023-09-05 02:41:27","9024","15.2270069","0.0016068","97.4696","307.6352","87.0147","273.2928","0","999","3725","0.0007512","0.00017525","0","3998343","0 SPACEBEE-158","1 55100U 23001CV  23248.11211816  .00017525  00000-0  75120-3 0  9995","2 55100  97.4696 307.6352 0016068  87.0147 273.2928 15.22700690 37250","2023-001CV","55100","6875.836","94.569","508.749","486.652","0"
"GENERATED VIA SPACETRACK.ORG API","18 SPCS","55100","SPACEBEE-158","PAYLOAD","U","23001CV","2023-09-06 02:20:52","410048","15.22736451","0.0016055","97.4693","308.6148","83.9037","276.4028","0","999","3740","0.00079021","0.00018461","0","3998781","0 SPACEBEE-158","1 55100U 23001CV  23249.09782882  .00018461  00000-0  79021-3 0  9993","2 55100  97.4693 308.6148 0016055  83.9037 276.4028 15.22736451 37407","2023-001CV","55100","6875.728","94.567","508.632","486.554","0"
"GENERATED VIA SPACETRACK.ORG API","18 SPCS","55100","SPACEBEE-158","PAYLOAD","U","23001CV","2023-09-06 03:55:30","37440","15.2273888","0.001606","97.4693","308.6802","83.5891","276.7173","0","999","3741","0.00079134","0.00018489","0","3999158","0 SPACEBEE-158","1 55100U 23001CV  23249.16354210  .00018489  00000-0  79134-3 0  9996","2 55100  97.4693 308.6802 0016060  83.5891 276.7173 15.22738880 37417","2023-001CV","55100","6875.721","94.566","508.628","486.543","0"
"GENERATED VIA SPACETRACK.ORG API","18 SPCS","55100","SPACEBEE-158","PAYLOAD","U","23001CV","2023-09-06 21:16:23","366784","15.22765133","0.0016042","97.4694","309.3991","81.2098","279.0954","0","999","3752","0.00085499","0.00020001","0","3999376","0 SPACEBEE-158","1 55100U 23001CV  23249.88638156  .00020001  00000-0  85499-3 0  9993","2 55100  97.4694 309.3991 0016042  81.2098 279.0954 15.22765133 37525","2023-001CV","55100","6875.642","94.565","508.536","486.477","0"
"GENERATED VIA SPACETRACK.ORG API","18 SPCS","55100","SPACEBEE-158","PAYLOAD","U","23001CV","2023-09-07 03:34:53","357952","15.22774695","0.0015932","97.4697","309.6601","80.0208","280.2826","0","999","3756","0.00080923","0.00018928","0","3999928","0 SPACEBEE-158","1 55100U 23001CV  23250.14922868  .00018928  00000-0  80923-3 0  9992","2 55100  97.4697 309.6601 0015932  80.0208 280.2826 15.22774695 37565","2023-001CV","55100","6875.613","94.564","508.432","486.524","0"
"GENERATED VIA SPACETRACK.ORG API","18 SPCS","55100","SPACEBEE-158","PAYLOAD","U","23001CV","2023-09-07 03:34:53","357952","15.22774695","0.0015932","97.4697","309.6601","80.0208","280.2826","0","999","3756","0.00080923","0.00018928","0","4000037","0 SPACEBEE-158","1 55100U 23001CV  23250.14922868  .00018928  00000-0  80923-3 0  9992","2 55100  97.4697 309.6601 0015932  80.0208 280.2826 15.22774695 37565","2023-001CV","55100","6875.613","94.564","508.432","486.524","0"
"GENERATED VIA SPACETRACK.ORG API","18 SPCS","55100","SPACEBEE-158","PAYLOAD","U","23001CV","2023-09-07 14:37:15","580704","15.2279161","0.0015882","97.4695","310.1175","78.442","281.8599","0","999","3763","0.0008642","0.00020232","0","4000222","0 SPACEBEE-158","1 55100U 23001CV  23250.60920811  .00020232  00000-0  86420-3 0  9998","2 55100  97.4695 310.1175 0015882  78.4420 281.8599 15.22791610 37635","2023-001CV","55100","6875.562","94.563","508.347","486.507","0"
"GENERATED VIA SPACETRACK.ORG API","18 SPCS","55100","SPACEBEE-158","PAYLOAD","U","23001CV","2023-09-08 03:14:14","647200","15.22814478","0.001575","97.4698","310.6406","77.1195","283.18","0","999","3771","0.00098383","0.00023066","0","4000854","0 SPACEBEE-158","1 55100U 23001CV  23251.13489175  .00023066  00000-0  98383-3 0  9999","2 55100  97.4698 310.6406 0015750  77.1195 283.1800 15.22814478 37716","2023-001CV","55100","6875.493","94.562","508.187","486.529","0"
"GENERATED VIA SPACETRACK.ORG API","18 SPCS","55100","SPACEBEE-158","PAYLOAD","U","23001CV","2023-09-08 17:25:50","565216","15.22828877","0.0015685","97.4698","311.2285","74.9981","285.299","0","999","3780","0.00078032","0.00018275","0","4001094","0 SPACEBEE-158","1 55100U 23001CV  23251.72627969  .00018275  00000-0  78032-3 0  9994","2 55100  97.4698 311.2285 0015685  74.9981 285.2990 15.22828877 37804","2023-001CV","55100","6875.450","94.561","508.099","486.531","0"
